{
    "links": {
        "self": "http://www.neowsapp.com/rest/v1/neo/3439361?api_key=iIulBulltgU6a56xZRHN4H3l9WmuAYTsLGpBGhQ2"
    },
    "id": "3439361",
    "neo_reference_id": "3439361",
    "name": "(2008 WD)",
    "designation": "2008 WD",
    "nasa_jpl_url": "http://ssd.jpl.nasa.gov/sbdb.cgi?sstr=3439361",
    "absolute_magnitude_h": 25.9,
    "estimated_diameter": {
        "kilometers": {
            "estimated_diameter_min": 0.0175612318,
            "estimated_diameter_max": 0.0392681082
        },
        "meters": {
            "estimated_diameter_min": 17.561231848,
            "estimated_diameter_max": 39.2681081809
        },
        "miles": {
            "estimated_diameter_min": 0.0109120402,
            "estimated_diameter_max": 0.0244000636
        },
        "feet": {
            "estimated_diameter_min": 57.6155918963,
            "estimated_diameter_max": 128.8323800441
        }
    },
    "is_potentially_hazardous_asteroid": false,
    "close_approach_data": [
        {
            "close_approach_date": "1913-07-16",
            "close_approach_date_full": "1913-Jul-16 00:28",
            "epoch_date_close_approach": -1781825520000,
            "relative_velocity": {
                "kilometers_per_second": "16.3363590317",
                "kilometers_per_hour": "58810.8925141686",
                "miles_per_hour": "36542.8015180399"
            },
            "miss_distance": {
                "astronomical": "0.0694801887",
                "lunar": "27.0277934043",
                "kilometers": "10394088.236718069",
                "miles": "6458586.9416405922"
            },
            "orbiting_body": "Mars"
        },
        {
            "close_approach_date": "2008-11-24",
            "close_approach_date_full": "2008-Nov-24 09:03",
            "epoch_date_close_approach": 1227517380000,
            "relative_velocity": {
                "kilometers_per_second": "10.70107465",
                "kilometers_per_hour": "38523.8687401318",
                "miles_per_hour": "23937.2338846669"
            },
            "miss_distance": {
                "astronomical": "0.0177216438",
                "lunar": "6.8937194382",
                "kilometers": "2651120.165378706",
                "miles": "1647329.6830739028"
            },
            "orbiting_body": "Earth"
        }
    ],
    "orbital_data": {
        "orbit_id": "15",
        "orbit_determination_date": "2017-04-06 09:02:12",
        "first_observation_date": "2008-11-18",
        "last_observation_date": "2008-11-25",
        "data_arc_in_days": 7,
        "observations_used": 68,
        "orbit_uncertainty": "7",
        "minimum_orbit_intersection": ".00831247",
        "jupiter_tisserand_invariant": "3.225",
        "epoch_osculation": "2459000.5",
        "eccentricity": ".6162547270194138",
        "semi_major_axis": "2.418415593389324",
        "inclination": "2.211482257606581",
        "ascending_node_longitude": "231.898767053408",
        "orbital_period": "1373.70926855199",
        "perihelion_distance": ".9280555520656928",
        "perihelion_argument": "225.1943814862562",
        "aphelion_distance": "3.908775634712956",
        "perihelion_time": "2458944.119498061461",
        "mean_anomaly": "14.77531029492779",
        "mean_motion": ".2620641850800582",
        "equinox": "J2000",
        "orbit_class": {
            "orbit_class_type": "APO",
            "orbit_class_description": "Near-Earth asteroid orbits which cross the Earth’s orbit similar to that of 1862 Apollo",
            "orbit_class_range": "a (semi-major axis) > 1.0 AU; q (perihelion) < 1.017 AU"
        }
    },
    "is_sentry_object": false
}